{"fetched_at":"2026-03-29T02:12:04Z","count":15717,"tles":[{"name":"STARLINK-34204","line1":"1 66213U 25244H   26087.56182497  .00033363  00000+0  11334-2 0  9991","line2":"2 66213  53.1589 141.9202 0001198 102.6984 257.4151 15.30202470 24554","category":"Starlink"}]}